[{"OBJECT_NAME":"STARLINK-34863","OBJECT_ID":"2025-243P","EPOCH":"2026-03-09T18:26:11.720544","MEAN_MOTION":15.30197257,"ECCENTRICITY":7.992e-5,"INCLINATION":53.1585,"RA_OF_ASC_NODE":245.0418,"ARG_OF_PERICENTER":71.4702,"MEAN_ANOMALY":288.6386,"EPHEMERIS_TYPE":0,"CLASSIFICATION_TYPE":"U","NORAD_CAT_ID":66190,"ELEMENT_SET_NO":999,"REV_AT_EPOCH":2066,"BSTAR":0.00098701247,"MEAN_MOTION_DOT":0.00028985,"MEAN_MOTION_DDOT":0},{"OBJECT_NAME":"UNKNOWN","OBJECT_ID":"","EPOCH":"2026-02-22T00:08:45.737952","MEAN_MOTION":14.15044008,"ECCENTRICITY":0.0509514,"INCLINATION":65.771,"RA_OF_ASC_NODE":261.596,"ARG_OF_PERICENTER":328.3661,"MEAN_ANOMALY":28.7697,"EPHEMERIS_TYPE":0,"CLASSIFICATION_TYPE":"U","NORAD_CAT_ID":87456,"ELEMENT_SET_NO":999,"REV_AT_EPOCH":62157,"BSTAR":0.00055206,"MEAN_MOTION_DOT":3.756e-5,"MEAN_MOTION_DDOT":0}]
